[{"OBJECT_NAME":"TIANHUI 2-01B","OBJECT_ID":"2019-024C","EPOCH":"2026-03-09T12:59:11.556672","MEAN_MOTION":15.16798968,"ECCENTRICITY":0.0002051,"INCLINATION":97.4822,"RA_OF_ASC_NODE":73.7938,"ARG_OF_PERICENTER":86.2099,"MEAN_ANOMALY":273.9369,"EPHEMERIS_TYPE":0,"CLASSIFICATION_TYPE":"U","NORAD_CAT_ID":44209,"ELEMENT_SET_NO":999,"REV_AT_EPOCH":37960,"BSTAR":0.00014951,"MEAN_MOTION_DOT":2.87e-5,"MEAN_MOTION_DDOT":0},{"OBJECT_NAME":"STARLINK-30365","OBJECT_ID":"2023-131C","EPOCH":"2026-03-09T22:00:01.999584","MEAN_MOTION":15.11740629,"ECCENTRICITY":0.00010893,"INCLINATION":42.9996,"RA_OF_ASC_NODE":170.4181,"ARG_OF_PERICENTER":243.5279,"MEAN_ANOMALY":327.2322,"EPHEMERIS_TYPE":0,"CLASSIFICATION_TYPE":"U","NORAD_CAT_ID":57734,"ELEMENT_SET_NO":999,"REV_AT_EPOCH":543,"BSTAR":0.080452759,"MEAN_MOTION_DOT":0.01512441,"MEAN_MOTION_DDOT":0}]
